ORBCOMM FM115 [+]       
1 41186U 15081H   24034.69854513  .00000908  00000+0  22142-3 0  9999
2 41186  46.9977 251.0149 0001090 278.3071  81.7692 14.60324991434715
ORBCOMM FM108 [+]       
1 41187U 15081J   24035.15915418  .00001114  00000+0  28693-3 0  9991
2 41187  47.0060 300.1063 0002308 192.3478 167.7351 14.56250122434010
ORBCOMM FM117 [+]       
1 41188U 15081K   24034.85064692  .00001111  00000+0  28614-3 0  9997
2 41188  47.0020 300.4858 0002887 200.6925 159.3843 14.56253319434018
ORBCOMM FM116 [+]       
1 41189U 15081L   24035.38898873  .00001393  00000+0  34933-3 0  9996
2 41189  47.0035  27.7626 0003265 287.8902  72.1626 14.56257303432904
