<?xml version="1.0" encoding="UTF-8"?>
<ndm xmlns:xsi="http://www.w3.org/2001/XMLSchema-instance" xsi:noNamespaceSchemaLocation="https://sanaregistry.org/r/ndmxml_unqualified/ndmxml-2.0.0-master-2.0.xsd">
<omm id="CCSDS_OMM_VERS" version="2.0">
<header><CREATION_DATE/><ORIGINATOR/></header><body><segment><metadata><OBJECT_NAME>ORBCOMM FM115 [+]</OBJECT_NAME><OBJECT_ID>2015-081H</OBJECT_ID><CENTER_NAME>EARTH</CENTER_NAME><REF_FRAME>TEME</REF_FRAME><TIME_SYSTEM>UTC</TIME_SYSTEM><MEAN_ELEMENT_THEORY>SGP4</MEAN_ELEMENT_THEORY></metadata><data><meanElements><EPOCH>2024-02-03T16:45:54.299232</EPOCH><MEAN_MOTION>14.60324991</MEAN_MOTION><ECCENTRICITY>.000109</ECCENTRICITY><INCLINATION>46.9977</INCLINATION><RA_OF_ASC_NODE>251.0149</RA_OF_ASC_NODE><ARG_OF_PERICENTER>278.3071</ARG_OF_PERICENTER><MEAN_ANOMALY>81.7692</MEAN_ANOMALY></meanElements><tleParameters><EPHEMERIS_TYPE>0</EPHEMERIS_TYPE><CLASSIFICATION_TYPE>U</CLASSIFICATION_TYPE><NORAD_CAT_ID>41186</NORAD_CAT_ID><ELEMENT_SET_NO>999</ELEMENT_SET_NO><REV_AT_EPOCH>43471</REV_AT_EPOCH><BSTAR>.22142E-3</BSTAR><MEAN_MOTION_DOT>.908E-5</MEAN_MOTION_DOT><MEAN_MOTION_DDOT>0</MEAN_MOTION_DDOT></tleParameters></data></segment></body></omm>
<omm id="CCSDS_OMM_VERS" version="2.0">
<header><CREATION_DATE/><ORIGINATOR/></header><body><segment><metadata><OBJECT_NAME>ORBCOMM FM108 [+]</OBJECT_NAME><OBJECT_ID>2015-081J</OBJECT_ID><CENTER_NAME>EARTH</CENTER_NAME><REF_FRAME>TEME</REF_FRAME><TIME_SYSTEM>UTC</TIME_SYSTEM><MEAN_ELEMENT_THEORY>SGP4</MEAN_ELEMENT_THEORY></metadata><data><meanElements><EPOCH>2024-02-04T03:49:10.921152</EPOCH><MEAN_MOTION>14.56250122</MEAN_MOTION><ECCENTRICITY>.0002308</ECCENTRICITY><INCLINATION>47.0060</INCLINATION><RA_OF_ASC_NODE>300.1063</RA_OF_ASC_NODE><ARG_OF_PERICENTER>192.3478</ARG_OF_PERICENTER><MEAN_ANOMALY>167.7351</MEAN_ANOMALY></meanElements><tleParameters><EPHEMERIS_TYPE>0</EPHEMERIS_TYPE><CLASSIFICATION_TYPE>U</CLASSIFICATION_TYPE><NORAD_CAT_ID>41187</NORAD_CAT_ID><ELEMENT_SET_NO>999</ELEMENT_SET_NO><REV_AT_EPOCH>43401</REV_AT_EPOCH><BSTAR>.28693E-3</BSTAR><MEAN_MOTION_DOT>.1114E-4</MEAN_MOTION_DOT><MEAN_MOTION_DDOT>0</MEAN_MOTION_DDOT></tleParameters></data></segment></body></omm>
<omm id="CCSDS_OMM_VERS" version="2.0">
<header><CREATION_DATE/><ORIGINATOR/></header><body><segment><metadata><OBJECT_NAME>ORBCOMM FM117 [+]</OBJECT_NAME><OBJECT_ID>2015-081K</OBJECT_ID><CENTER_NAME>EARTH</CENTER_NAME><REF_FRAME>TEME</REF_FRAME><TIME_SYSTEM>UTC</TIME_SYSTEM><MEAN_ELEMENT_THEORY>SGP4</MEAN_ELEMENT_THEORY></metadata><data><meanElements><EPOCH>2024-02-03T20:24:55.893888</EPOCH><MEAN_MOTION>14.56253319</MEAN_MOTION><ECCENTRICITY>.0002887</ECCENTRICITY><INCLINATION>47.0020</INCLINATION><RA_OF_ASC_NODE>300.4858</RA_OF_ASC_NODE><ARG_OF_PERICENTER>200.6925</ARG_OF_PERICENTER><MEAN_ANOMALY>159.3843</MEAN_ANOMALY></meanElements><tleParameters><EPHEMERIS_TYPE>0</EPHEMERIS_TYPE><CLASSIFICATION_TYPE>U</CLASSIFICATION_TYPE><NORAD_CAT_ID>41188</NORAD_CAT_ID><ELEMENT_SET_NO>999</ELEMENT_SET_NO><REV_AT_EPOCH>43401</REV_AT_EPOCH><BSTAR>.28614E-3</BSTAR><MEAN_MOTION_DOT>.1111E-4</MEAN_MOTION_DOT><MEAN_MOTION_DDOT>0</MEAN_MOTION_DDOT></tleParameters></data></segment></body></omm>
<omm id="CCSDS_OMM_VERS" version="2.0">
<header><CREATION_DATE/><ORIGINATOR/></header><body><segment><metadata><OBJECT_NAME>ORBCOMM FM116 [+]</OBJECT_NAME><OBJECT_ID>2015-081L</OBJECT_ID><CENTER_NAME>EARTH</CENTER_NAME><REF_FRAME>TEME</REF_FRAME><TIME_SYSTEM>UTC</TIME_SYSTEM><MEAN_ELEMENT_THEORY>SGP4</MEAN_ELEMENT_THEORY></metadata><data><meanElements><EPOCH>2024-02-04T09:20:08.626272</EPOCH><MEAN_MOTION>14.56257303</MEAN_MOTION><ECCENTRICITY>.0003265</ECCENTRICITY><INCLINATION>47.0035</INCLINATION><RA_OF_ASC_NODE>27.7626</RA_OF_ASC_NODE><ARG_OF_PERICENTER>287.8902</ARG_OF_PERICENTER><MEAN_ANOMALY>72.1626</MEAN_ANOMALY></meanElements><tleParameters><EPHEMERIS_TYPE>0</EPHEMERIS_TYPE><CLASSIFICATION_TYPE>U</CLASSIFICATION_TYPE><NORAD_CAT_ID>41189</NORAD_CAT_ID><ELEMENT_SET_NO>999</ELEMENT_SET_NO><REV_AT_EPOCH>43290</REV_AT_EPOCH><BSTAR>.34933E-3</BSTAR><MEAN_MOTION_DOT>.1393E-4</MEAN_MOTION_DOT><MEAN_MOTION_DDOT>0</MEAN_MOTION_DDOT></tleParameters></data></segment></body></omm>
</ndm>
